[{"OBJECT_NAME":"STARLINK-34060","OBJECT_ID":"2025-092M","EPOCH":"2026-03-09T08:03:04.891392","MEAN_MOTION":15.27572284,"ECCENTRICITY":9.756e-5,"INCLINATION":43.003,"RA_OF_ASC_NODE":174.2772,"ARG_OF_PERICENTER":270.5155,"MEAN_ANOMALY":89.5585,"EPHEMERIS_TYPE":0,"CLASSIFICATION_TYPE":"U","NORAD_CAT_ID":63815,"ELEMENT_SET_NO":999,"REV_AT_EPOCH":4850,"BSTAR":0.00075063887,"MEAN_MOTION_DOT":0.00020446,"MEAN_MOTION_DDOT":0},{"OBJECT_NAME":"CZ-6A DEB","OBJECT_ID":"2022-151AJB","EPOCH":"2026-02-27T14:06:27.470880","MEAN_MOTION":15.13235807,"ECCENTRICITY":0.00651829,"INCLINATION":98.7617,"RA_OF_ASC_NODE":191.4844,"ARG_OF_PERICENTER":85.1472,"MEAN_ANOMALY":275.7194,"EPHEMERIS_TYPE":0,"CLASSIFICATION_TYPE":"U","NORAD_CAT_ID":58433,"ELEMENT_SET_NO":999,"REV_AT_EPOCH":15167,"BSTAR":0.0027921214,"MEAN_MOTION_DOT":0.00052525,"MEAN_MOTION_DDOT":0}]
